25286,IRIDIUM 63,1998,100.25,-1.0,-,86.39,Inactive,0,LEO,Kazakhstan,USA,Unknown,Unknown,Unknown,1 25286U 98021B   25105.55803103  .00000843  00000+0  28083-3 0  9999,2 25286  86.3931 108.4134 0002449  91.2153 268.9324 14.36479572414850,14.36479572,0.0002449,LEO
25319,IRIDIUM 69,1998,99.94,-1.0,-,86.39,Inactive,0,LEO,PRC,USA,Unknown,Unknown,Unknown,1 25319U 98026A   25105.55412927  .00000942  00000+0  28776-3 0  9990,2 25319  86.3939 121.8967 0001580 159.5503 200.5760 14.40890646414041,14.40890646,0.000158,LEO
25320,IRIDIUM 71,1998,99.92,-1.0,-,86.39,Inactive,0,LEO,PRC,USA,Unknown,Unknown,Unknown,1 25320U 98026B   25105.56938548  .00000903  00000+0  27467-3 0  9998,2 25320  86.3930 116.5910 0000910  22.9112 337.2128 14.41087748414574,14.41087748,9.1e-05,LEO
25344,IRIDIUM 73,1998,99.2,-1.0,-,86.44,Inactive,0,LEO,USA,USA,Unknown,Unknown,Unknown,1 25344U 98032C   25104.99070071  .00001515  00000+0  37333-3 0  9998,2 25344  86.4383  73.6535 0002136 102.4908 257.6536 14.51610257421392,14.51610257,0.0002136,LEO
25467,IRIDIUM 82,1998,94.2,-1.0,-,86.37,Inactive,0,LEO,USA,USA,Unknown,Unknown,Unknown,1 25467U 98051A   25105.59243794  .00028182  00000+0  88436-3 0  9995,2 25467  86.3671 140.4368 0092491 172.0079 188.2670 15.28714309414386,15.28714309,0.0092491,LEO
